[
  {
    "OBJECT_NAME": "STARLINK-5293",
    "OBJECT_ID": "23010AC",
    "EPOCH": "2025-11-11T06:20:33.626976",
    "MEAN_MOTION": 14.98329785,
    "ECCENTRICITY": 0.0003628,
    "INCLINATION": 69.9999,
    "RA_OF_ASC_NODE": 343.1823,
    "ARG_OF_PERICENTER": 268.4917,
    "MEAN_ANOMALY": 91.5826,
    "EPHEMERIS_TYPE": 0,
    "CLASSIFICATION_TYPE": "U",
    "NORAD_CAT_ID": 55295,
    "ELEMENT_SET_NO": 999,
    "REV_AT_EPOCH": 15504,
    "BSTAR": 4.7393000000000005e-05,
    "MEAN_MOTION_DOT": 4.72e-06,
    "MEAN_MOTION_DDOT": 0.0,
    "TLE_LINE1": "1 55295U 23010AC  25315.26427809  .00000472  00000+0  47393-4 0  9998",
    "TLE_LINE2": "2 55295  69.9999 343.1823 0003628 268.4917  91.5826 14.98329785155041",
    "COMMENT": "Grouped by shell and plane from TLE"
  },
  {
    "OBJECT_NAME": "STARLINK-5322",
    "OBJECT_ID": "23010AL",
    "EPOCH": "2025-11-11T06:38:33.312480",
    "MEAN_MOTION": 14.98329331,
    "ECCENTRICITY": 0.0003038,
    "INCLINATION": 69.9995,
    "RA_OF_ASC_NODE": 342.8214,
    "ARG_OF_PERICENTER": 262.7104,
    "MEAN_ANOMALY": 97.371,
    "EPHEMERIS_TYPE": 0,
    "CLASSIFICATION_TYPE": "U",
    "NORAD_CAT_ID": 55303,
    "ELEMENT_SET_NO": 999,
    "REV_AT_EPOCH": 15504,
    "BSTAR": 6.4479e-05,
    "MEAN_MOTION_DOT": 6.76e-06,
    "MEAN_MOTION_DDOT": 0.0,
    "TLE_LINE1": "1 55303U 23010AL  25315.27677445  .00000676  00000+0  64479-4 0  9992",
    "TLE_LINE2": "2 55303  69.9995 342.8214 0003038 262.7104  97.3710 14.98329331155040",
    "COMMENT": "Grouped by shell and plane from TLE"
  },
  {
    "OBJECT_NAME": "STARLINK-5085",
    "OBJECT_ID": "23014B",
    "EPOCH": "2025-11-11T06:32:34.551168",
    "MEAN_MOTION": 14.98333524,
    "ECCENTRICITY": 0.000283,
    "INCLINATION": 69.9999,
    "RA_OF_ASC_NODE": 342.9208,
    "ARG_OF_PERICENTER": 254.3412,
    "MEAN_ANOMALY": 105.7435,
    "EPHEMERIS_TYPE": 0,
    "CLASSIFICATION_TYPE": "U",
    "NORAD_CAT_ID": 55392,
    "ELEMENT_SET_NO": 999,
    "REV_AT_EPOCH": 15481,
    "BSTAR": 0.0,
    "MEAN_MOTION_DOT": -2.956e-05,
    "MEAN_MOTION_DDOT": 0.0,
    "TLE_LINE1": "1 55392U 23014B   25315.27262212 -.00002956  00000+0 -24006-3 0  9992",
    "TLE_LINE2": "2 55392  69.9999 342.9208 0002830 254.3412 105.7435 14.98333524154815",
    "COMMENT": "Grouped by shell and plane from TLE"
  },
  {
    "OBJECT_NAME": "STARLINK-5224",
    "OBJECT_ID": "23014G",
    "EPOCH": "2025-11-11T06:02:32.140896",
    "MEAN_MOTION": 14.98332007,
    "ECCENTRICITY": 0.0003113,
    "INCLINATION": 69.9996,
    "RA_OF_ASC_NODE": 343.2333,
    "ARG_OF_PERICENTER": 270.5082,
    "MEAN_ANOMALY": 89.572,
    "EPHEMERIS_TYPE": 0,
    "CLASSIFICATION_TYPE": "U",
    "NORAD_CAT_ID": 55397,
    "ELEMENT_SET_NO": 999,
    "REV_AT_EPOCH": 15480,
    "BSTAR": 5.8553999999999995e-05,
    "MEAN_MOTION_DOT": 6.06e-06,
    "MEAN_MOTION_DDOT": 0.0,
    "TLE_LINE1": "1 55397U 23014G   25315.25176089  .00000606  00000+0  58554-4 0  9995",
    "TLE_LINE2": "2 55397  69.9996 343.2333 0003113 270.5082  89.5720 14.98332007154808",
    "COMMENT": "Grouped by shell and plane from TLE"
  },
  {
    "OBJECT_NAME": "STARLINK-5604",
    "OBJECT_ID": "23014AF",
    "EPOCH": "2025-11-11T07:02:36.367872",
    "MEAN_MOTION": 14.9833467,
    "ECCENTRICITY": 0.0003214,
    "INCLINATION": 69.9991,
    "RA_OF_ASC_NODE": 343.0001,
    "ARG_OF_PERICENTER": 268.549,
    "MEAN_ANOMALY": 91.5301,
    "EPHEMERIS_TYPE": 0,
    "CLASSIFICATION_TYPE": "U",
    "NORAD_CAT_ID": 55420,
    "ELEMENT_SET_NO": 999,
    "REV_AT_EPOCH": 15481,
    "BSTAR": 4.8728e-05,
    "MEAN_MOTION_DOT": 4.88e-06,
    "MEAN_MOTION_DDOT": 0.0,
    "TLE_LINE1": "1 55420U 23014AF  25315.29347648  .00000488  00000+0  48728-4 0  9997",
    "TLE_LINE2": "2 55420  69.9991 343.0001 0003214 268.5490  91.5301 14.98334670154819",
    "COMMENT": "Grouped by shell and plane from TLE"
  },
  {
    "OBJECT_NAME": "STARLINK-5915",
    "OBJECT_ID": "23042B",
    "EPOCH": "2025-11-11T02:59:34.561248",
    "MEAN_MOTION": 15.02530911,
    "ECCENTRICITY": 0.0001086,
    "INCLINATION": 43.0056,
    "RA_OF_ASC_NODE": 340.4889,
    "ARG_OF_PERICENTER": 288.574,
    "MEAN_ANOMALY": 71.4985,
    "EPHEMERIS_TYPE": 0,
    "CLASSIFICATION_TYPE": "U",
    "NORAD_CAT_ID": 55987,
    "ELEMENT_SET_NO": 999,
    "REV_AT_EPOCH": 14507,
    "BSTAR": 0.00021137,
    "MEAN_MOTION_DOT": 2.652e-05,
    "MEAN_MOTION_DDOT": 0.0,
    "TLE_LINE1": "1 55987U 23042B   25315.12470557  .00002652  00000+0  21137-3 0  9993",
    "TLE_LINE2": "2 55987  43.0056 340.4889 0001086 288.5740  71.4985 15.02530911145077",
    "COMMENT": "Grouped by shell and plane from TLE"
  },
  {
    "OBJECT_NAME": "STARLINK-5916",
    "OBJECT_ID": "23042C",
    "EPOCH": "2025-11-10T18:30:34.132896",
    "MEAN_MOTION": 15.02565247,
    "ECCENTRICITY": 0.0001048,
    "INCLINATION": 43.0047,
    "RA_OF_ASC_NODE": 342.1486,
    "ARG_OF_PERICENTER": 272.0279,
    "MEAN_ANOMALY": 88.0444,
    "EPHEMERIS_TYPE": 0,
    "CLASSIFICATION_TYPE": "U",
    "NORAD_CAT_ID": 55988,
    "ELEMENT_SET_NO": 999,
    "REV_AT_EPOCH": 14502,
    "BSTAR": 0.0,
    "MEAN_MOTION_DOT": -3.418e-05,
    "MEAN_MOTION_DDOT": 0.0,
    "TLE_LINE1": "1 55988U 23042C   25314.77122839 -.00003418  00000+0 -23791-3 0  9992",
    "TLE_LINE2": "2 55988  43.0047 342.1486 0001048 272.0279  88.0444 15.02565247145022",
    "COMMENT": "Grouped by shell and plane from TLE"
  },
  {
    "OBJECT_NAME": "STARLINK-5947",
    "OBJECT_ID": "23042D",
    "EPOCH": "2025-11-11T03:09:10.020672",
    "MEAN_MOTION": 15.02536805,
    "ECCENTRICITY": 0.0001112,
    "INCLINATION": 43.0049,
    "RA_OF_ASC_NODE": 340.5413,
    "ARG_OF_PERICENTER": 274.0999,
    "MEAN_ANOMALY": 85.9717,
    "EPHEMERIS_TYPE": 0,
    "CLASSIFICATION_TYPE": "U",
    "NORAD_CAT_ID": 55989,
    "ELEMENT_SET_NO": 999,
    "REV_AT_EPOCH": 14507,
    "BSTAR": 7.2678e-05,
    "MEAN_MOTION_DOT": 7.78e-06,
    "MEAN_MOTION_DDOT": 0.0,
    "TLE_LINE1": "1 55989U 23042D   25315.13136598  .00000778  00000+0  72678-4 0  9994",
    "TLE_LINE2": "2 55989  43.0049 340.5413 0001112 274.0999  85.9717 15.02536805145072",
    "COMMENT": "Grouped by shell and plane from TLE"
  },
  {
    "OBJECT_NAME": "STARLINK-5946",
    "OBJECT_ID": "23042E",
    "EPOCH": "2025-11-11T03:20:21.537888",
    "MEAN_MOTION": 15.02554918,
    "ECCENTRICITY": 0.0001113,
    "INCLINATION": 43.0051,
    "RA_OF_ASC_NODE": 340.5992,
    "ARG_OF_PERICENTER": 260.3884,
    "MEAN_ANOMALY": 99.6832,
    "EPHEMERIS_TYPE": 0,
    "CLASSIFICATION_TYPE": "U",
    "NORAD_CAT_ID": 55990,
    "ELEMENT_SET_NO": 999,
    "REV_AT_EPOCH": 14507,
    "BSTAR": 0.0,
    "MEAN_MOTION_DOT": -2.055e-05,
    "MEAN_MOTION_DDOT": 0.0,
    "TLE_LINE1": "1 55990U 23042E   25315.13913817 -.00002055  00000+0 -13705-3 0  9990",
    "TLE_LINE2": "2 55990  43.0051 340.5992 0001113 260.3884  99.6832 15.02554918145076",
    "COMMENT": "Grouped by shell and plane from TLE"
  },
  {
    "OBJECT_NAME": "STARLINK-5948",
    "OBJECT_ID": "23042F",
    "EPOCH": "2025-11-11T02:46:48.151776",
    "MEAN_MOTION": 15.02644201,
    "ECCENTRICITY": 0.0001133,
    "INCLINATION": 43.0058,
    "RA_OF_ASC_NODE": 340.4205,
    "ARG_OF_PERICENTER": 230.7739,
    "MEAN_ANOMALY": 129.3003,
    "EPHEMERIS_TYPE": 0,
    "CLASSIFICATION_TYPE": "U",
    "NORAD_CAT_ID": 55991,
    "ELEMENT_SET_NO": 999,
    "REV_AT_EPOCH": 14507,
    "BSTAR": 0.0,
    "MEAN_MOTION_DOT": -0.0002168,
    "MEAN_MOTION_DDOT": 0.0,
    "TLE_LINE1": "1 55991U 23042F   25315.11583509 -.00021680  00000+0 -15902-2 0  9995",
    "TLE_LINE2": "2 55991  43.0058 340.4205 0001133 230.7739 129.3003 15.02644201145078",
    "COMMENT": "Grouped by shell and plane from TLE"
  },
  {
    "OBJECT_NAME": "STARLINK-5969",
    "OBJECT_ID": "23042H",
    "EPOCH": "2025-11-11T01:38:13.829568",
    "MEAN_MOTION": 15.02540431,
    "ECCENTRICITY": 0.0001039,
    "INCLINATION": 43.0054,
    "RA_OF_ASC_NODE": 340.9259,
    "ARG_OF_PERICENTER": 263.0574,
    "MEAN_ANOMALY": 97.015,
    "EPHEMERIS_TYPE": 0,
    "CLASSIFICATION_TYPE": "U",
    "NORAD_CAT_ID": 55993,
    "ELEMENT_SET_NO": 999,
    "REV_AT_EPOCH": 14506,
    "BSTAR": 0.0001249,
    "MEAN_MOTION_DOT": 1.484e-05,
    "MEAN_MOTION_DDOT": 0.0,
    "TLE_LINE1": "1 55993U 23042H   25315.06821562  .00001484  00000+0  12490-3 0  9993",
    "TLE_LINE2": "2 55993  43.0054 340.9259 0001039 263.0574  97.0150 15.02540431145064",
    "COMMENT": "Grouped by shell and plane from TLE"
  },
  {
    "OBJECT_NAME": "STARLINK-5956",
    "OBJECT_ID": "23042J",
    "EPOCH": "2025-11-11T02:56:21.823584",
    "MEAN_MOTION": 15.02543186,
    "ECCENTRICITY": 0.0001703,
    "INCLINATION": 43.006,
    "RA_OF_ASC_NODE": 340.4714,
    "ARG_OF_PERICENTER": 270.1821,
    "MEAN_ANOMALY": 89.8826,
    "EPHEMERIS_TYPE": 0,
    "CLASSIFICATION_TYPE": "U",
    "NORAD_CAT_ID": 55994,
    "ELEMENT_SET_NO": 999,
    "REV_AT_EPOCH": 14507,
    "BSTAR": 8.9704e-05,
    "MEAN_MOTION_DOT": 1.008e-05,
    "MEAN_MOTION_DDOT": 0.0,
    "TLE_LINE1": "1 55994U 23042J   25315.12247481  .00001008  00000+0  89704-4 0  9998",
    "TLE_LINE2": "2 55994  43.0060 340.4714 0001703 270.1821  89.8826 15.02543186145075",
    "COMMENT": "Grouped by shell and plane from TLE"
  },
  {
    "OBJECT_NAME": "STARLINK-5903",
    "OBJECT_ID": "23042L",
    "EPOCH": "2025-11-11T02:37:11.805024",
    "MEAN_MOTION": 15.02544101,
    "ECCENTRICITY": 0.0001348,
    "INCLINATION": 43.0049,
    "RA_OF_ASC_NODE": 340.3735,
    "ARG_OF_PERICENTER": 264.9263,
    "MEAN_ANOMALY": 95.1426,
    "EPHEMERIS_TYPE": 0,
    "CLASSIFICATION_TYPE": "U",
    "NORAD_CAT_ID": 55996,
    "ELEMENT_SET_NO": 999,
    "REV_AT_EPOCH": 14507,
    "BSTAR": 7.7045e-05,
    "MEAN_MOTION_DOT": 8.37e-06,
    "MEAN_MOTION_DDOT": 0.0,
    "TLE_LINE1": "1 55996U 23042L   25315.10916441  .00000837  00000+0  77045-4 0  9991",
    "TLE_LINE2": "2 55996  43.0049 340.3735 0001348 264.9263  95.1426 15.02544101145076",
    "COMMENT": "Grouped by shell and plane from TLE"
  }
]